CCSDS_OMM_VERS = 2.0
CREATION_DATE  = 
ORIGINATOR     = 

OBJECT_NAME    = AETHER-4
OBJECT_ID      = 2026-004N
CENTER_NAME    = EARTH
REF_FRAME      = TEME
TIME_SYSTEM    = UTC
MEAN_ELEMENT_THEORY = SGP/SGP4

EPOCH          = 2026-02-09T22:25:43.360896
MEAN_MOTION    = 14.87969255
ECCENTRICITY   = .00051588
INCLINATION    = 97.8019
RA_OF_ASC_NODE = 41.6192
ARG_OF_PERICENTER = 166.3643
MEAN_ANOMALY   = 193.7714

EPHEMERIS_TYPE = 0
CLASSIFICATION_TYPE = U
NORAD_CAT_ID   = 67375
ELEMENT_SET_NO = 999
REV_AT_EPOCH   = 437
BSTAR          = .33478647E-3
MEAN_MOTION_DOT = .3017E-4
MEAN_MOTION_DDOT = 0

CCSDS_OMM_VERS = 2.0
CREATION_DATE  = 
ORIGINATOR     = 

OBJECT_NAME    = AETHER-5
OBJECT_ID      = 2026-004P
CENTER_NAME    = EARTH
REF_FRAME      = TEME
TIME_SYSTEM    = UTC
MEAN_ELEMENT_THEORY = SGP/SGP4

EPOCH          = 2026-02-09T22:29:59.233632
MEAN_MOTION    = 14.87812644
ECCENTRICITY   = .00054826
INCLINATION    = 97.8016
RA_OF_ASC_NODE = 41.6141
ARG_OF_PERICENTER = 172.0506
MEAN_ANOMALY   = 188.0798

EPHEMERIS_TYPE = 0
CLASSIFICATION_TYPE = U
NORAD_CAT_ID   = 67376
ELEMENT_SET_NO = 999
REV_AT_EPOCH   = 437
BSTAR          = .39077188E-3
MEAN_MOTION_DOT = .3517E-4
MEAN_MOTION_DDOT = 0

CCSDS_OMM_VERS = 2.0
CREATION_DATE  = 
ORIGINATOR     = 

OBJECT_NAME    = AETHER-6
OBJECT_ID      = 2026-004Q
CENTER_NAME    = EARTH
REF_FRAME      = TEME
TIME_SYSTEM    = UTC
MEAN_ELEMENT_THEORY = SGP/SGP4

EPOCH          = 2026-02-09T22:25:14.536128
MEAN_MOTION    = 14.87988317
ECCENTRICITY   = .00051499
INCLINATION    = 97.8019
RA_OF_ASC_NODE = 41.6191
ARG_OF_PERICENTER = 165.1222
MEAN_ANOMALY   = 195.0147

EPHEMERIS_TYPE = 0
CLASSIFICATION_TYPE = U
NORAD_CAT_ID   = 67377
ELEMENT_SET_NO = 999
REV_AT_EPOCH   = 436
BSTAR          = .35719999E-3
MEAN_MOTION_DOT = .3224E-4
MEAN_MOTION_DDOT = 0

CCSDS_OMM_VERS = 2.0
CREATION_DATE  = 
ORIGINATOR     = 

OBJECT_NAME    = AETHER-7
OBJECT_ID      = 2026-004R
CENTER_NAME    = EARTH
REF_FRAME      = TEME
TIME_SYSTEM    = UTC
MEAN_ELEMENT_THEORY = SGP/SGP4

EPOCH          = 2026-02-09T22:32:02.196384
MEAN_MOTION    = 14.87742234
ECCENTRICITY   = .00048054
INCLINATION    = 97.7989
RA_OF_ASC_NODE = 41.6042
ARG_OF_PERICENTER = 179.4647
MEAN_ANOMALY   = 180.6575

EPHEMERIS_TYPE = 0
CLASSIFICATION_TYPE = U
NORAD_CAT_ID   = 67378
ELEMENT_SET_NO = 999
REV_AT_EPOCH   = 436
BSTAR          = .33293128E-3
MEAN_MOTION_DOT = .2983E-4
MEAN_MOTION_DDOT = 0

CCSDS_OMM_VERS = 2.0
CREATION_DATE  = 
ORIGINATOR     = 

OBJECT_NAME    = AETHER-8
OBJECT_ID      = 2026-004S
CENTER_NAME    = EARTH
REF_FRAME      = TEME
TIME_SYSTEM    = UTC
MEAN_ELEMENT_THEORY = SGP/SGP4

EPOCH          = 2026-02-09T22:31:44.314176
MEAN_MOTION    = 14.87751684
ECCENTRICITY   = .00053324
INCLINATION    = 97.7995
RA_OF_ASC_NODE = 41.6066
ARG_OF_PERICENTER = 176.9700
MEAN_ANOMALY   = 183.1549

EPHEMERIS_TYPE = 0
CLASSIFICATION_TYPE = U
NORAD_CAT_ID   = 67379
ELEMENT_SET_NO = 999
REV_AT_EPOCH   = 436
BSTAR          = .35822397E-3
MEAN_MOTION_DOT = .3214E-4
MEAN_MOTION_DDOT = 0

CCSDS_OMM_VERS = 2.0
CREATION_DATE  = 
ORIGINATOR     = 

OBJECT_NAME    = AETHER-9
OBJECT_ID      = 2026-004T
CENTER_NAME    = EARTH
REF_FRAME      = TEME
TIME_SYSTEM    = UTC
MEAN_ELEMENT_THEORY = SGP/SGP4

EPOCH          = 2026-02-09T22:29:05.104896
MEAN_MOTION    = 14.87851490
ECCENTRICITY   = .00048714
INCLINATION    = 97.7985
RA_OF_ASC_NODE = 41.6067
ARG_OF_PERICENTER = 175.3962
MEAN_ANOMALY   = 184.7300

EPHEMERIS_TYPE = 0
CLASSIFICATION_TYPE = U
NORAD_CAT_ID   = 67380
ELEMENT_SET_NO = 999
REV_AT_EPOCH   = 436
BSTAR          = .33497225E-3
MEAN_MOTION_DOT = .301E-4
MEAN_MOTION_DDOT = 0

CCSDS_OMM_VERS = 2.0
CREATION_DATE  = 
ORIGINATOR     = 

OBJECT_NAME    = AETHER-10
OBJECT_ID      = 2026-004U
CENTER_NAME    = EARTH
REF_FRAME      = TEME
TIME_SYSTEM    = UTC
MEAN_ELEMENT_THEORY = SGP/SGP4

EPOCH          = 2026-02-09T12:44:03.506496
MEAN_MOTION    = 14.88012301
ECCENTRICITY   = .00052919
INCLINATION    = 97.8021
RA_OF_ASC_NODE = 41.2249
ARG_OF_PERICENTER = 168.2149
MEAN_ANOMALY   = 191.9193

EPHEMERIS_TYPE = 0
CLASSIFICATION_TYPE = U
NORAD_CAT_ID   = 67381
ELEMENT_SET_NO = 999
REV_AT_EPOCH   = 430
BSTAR          = .40436437E-3
MEAN_MOTION_DOT = .3659E-4
MEAN_MOTION_DDOT = 0

CCSDS_OMM_VERS = 2.0
CREATION_DATE  = 
ORIGINATOR     = 

OBJECT_NAME    = AETHER-11
OBJECT_ID      = 2026-004V
CENTER_NAME    = EARTH
REF_FRAME      = TEME
TIME_SYSTEM    = UTC
MEAN_ELEMENT_THEORY = SGP/SGP4

EPOCH          = 2026-02-09T22:23:34.719072
MEAN_MOTION    = 14.88039374
ECCENTRICITY   = .00048727
INCLINATION    = 97.8014
RA_OF_ASC_NODE = 41.6195
ARG_OF_PERICENTER = 162.7086
MEAN_ANOMALY   = 197.4297

EPHEMERIS_TYPE = 0
CLASSIFICATION_TYPE = U
NORAD_CAT_ID   = 67382
ELEMENT_SET_NO = 999
REV_AT_EPOCH   = 436
BSTAR          = .32416871E-3
MEAN_MOTION_DOT = .2924E-4
MEAN_MOTION_DDOT = 0

CCSDS_OMM_VERS = 2.0
CREATION_DATE  = 
ORIGINATOR     = 

OBJECT_NAME    = AETHER-12
OBJECT_ID      = 2026-004W
CENTER_NAME    = EARTH
REF_FRAME      = TEME
TIME_SYSTEM    = UTC
MEAN_ELEMENT_THEORY = SGP/SGP4

EPOCH          = 2026-02-09T22:31:18.604992
MEAN_MOTION    = 14.87769613
ECCENTRICITY   = .00051736
INCLINATION    = 97.7990
RA_OF_ASC_NODE = 41.6059
ARG_OF_PERICENTER = 177.6887
MEAN_ANOMALY   = 182.4354

EPHEMERIS_TYPE = 0
CLASSIFICATION_TYPE = U
NORAD_CAT_ID   = 67383
ELEMENT_SET_NO = 999
REV_AT_EPOCH   = 436
BSTAR          = .36719544E-3
MEAN_MOTION_DOT = .3298E-4
MEAN_MOTION_DDOT = 0

CCSDS_OMM_VERS = 2.0
CREATION_DATE  = 
ORIGINATOR     = 

OBJECT_NAME    = TWILIGHT-1 OBJECT X
OBJECT_ID      = 2026-004X
CENTER_NAME    = EARTH
REF_FRAME      = TEME
TIME_SYSTEM    = UTC
MEAN_ELEMENT_THEORY = SGP/SGP4

EPOCH          = 2026-02-09T20:42:34.521984
MEAN_MOTION    = 14.88213797
ECCENTRICITY   = .0004297
INCLINATION    = 97.7987
RA_OF_ASC_NODE = 41.5504
ARG_OF_PERICENTER = 164.8999
MEAN_ANOMALY   = 195.2347

EPHEMERIS_TYPE = 0
CLASSIFICATION_TYPE = U
NORAD_CAT_ID   = 67384
ELEMENT_SET_NO = 999
REV_AT_EPOCH   = 435
BSTAR          = .71269497E-3
MEAN_MOTION_DOT = .6525E-4
MEAN_MOTION_DDOT = 0

CCSDS_OMM_VERS = 2.0
CREATION_DATE  = 
ORIGINATOR     = 

OBJECT_NAME    = TWILIGHT-1 OBJECT Y
OBJECT_ID      = 2026-004Y
CENTER_NAME    = EARTH
REF_FRAME      = TEME
TIME_SYSTEM    = UTC
MEAN_ELEMENT_THEORY = SGP/SGP4

EPOCH          = 2026-02-09T20:39:12.569760
MEAN_MOTION    = 14.88475942
ECCENTRICITY   = .00043754
INCLINATION    = 97.8000
RA_OF_ASC_NODE = 41.5563
ARG_OF_PERICENTER = 157.0444
MEAN_ANOMALY   = 203.0970

EPHEMERIS_TYPE = 0
CLASSIFICATION_TYPE = U
NORAD_CAT_ID   = 67385
ELEMENT_SET_NO = 999
REV_AT_EPOCH   = 435
BSTAR          = .72047691E-3
MEAN_MOTION_DOT = .664E-4
MEAN_MOTION_DDOT = 0

CCSDS_OMM_VERS = 2.0
CREATION_DATE  = 
ORIGINATOR     = 

OBJECT_NAME    = TWILIGHT-1 OBJECT Z
OBJECT_ID      = 2026-004Z
CENTER_NAME    = EARTH
REF_FRAME      = TEME
TIME_SYSTEM    = UTC
MEAN_ELEMENT_THEORY = SGP/SGP4

EPOCH          = 2026-02-09T22:14:31.270848
MEAN_MOTION    = 14.88372385
ECCENTRICITY   = .00030963
INCLINATION    = 97.7980
RA_OF_ASC_NODE = 41.6198
ARG_OF_PERICENTER = 155.7846
MEAN_ANOMALY   = 204.3517

EPHEMERIS_TYPE = 0
CLASSIFICATION_TYPE = U
NORAD_CAT_ID   = 67386
ELEMENT_SET_NO = 999
REV_AT_EPOCH   = 436
BSTAR          = .34104592E-3
MEAN_MOTION_DOT = .3105E-4
MEAN_MOTION_DDOT = 0

